KUIPER-00053            
1 64513U 25134P   25291.83296798 -.00434758  00000+0 -44518-1 0  9990
2 64513  51.8953 130.4349 0002833 182.1808 177.9148 14.92194117 19208
KUIPER-00054            
1 64514U 25134Q   25292.00003472 -.00925523  00000+0 -67368-1 0  9999
2 64514  51.8849 126.3772 0006326 180.1251 201.1880 15.06271480  2387
KUIPER-00055            
1 64515U 25134R   25291.95333252  .00032946  00000+0  14819-2 0  9995
2 64515  51.8879 125.5419 0001186 341.2893  18.8043 15.20813891 19286
KUIPER-00056            
1 64516U 25134S   25292.00003472 -.00552770  00000+0 -66340-1 0  9990
2 64516  51.9173 130.7260 0002505 175.4920 336.8421 14.86002626  5039
KUIPER-00057            
1 64517U 25134T   25291.95367763  .00007735  00000+0  10410-2 0  9992
2 64517  51.8984 138.3646 0009538 167.6001 192.5197 14.79970681 19104
KUIPER-00058            
1 64518U 25134U   25292.00003472  .00031678  00000+0  37360-2 0  9990
2 64518  51.8964 132.1294 0004925 202.5018 327.9056 14.84458766  3276
KUIPER-00059            
1 64519U 25134V   25292.00003472  .00047870  00000+0  40224-2 0  9995
2 64519  51.8943 127.9785 0002529 354.7074  75.7929 14.97829787  5774
KUIPER-00060            
1 64520U 25134W   25292.00003472 -.00505252  00000+0 -54213-1 0  9994
2 64520  51.8958 128.4676 0001302 199.9829 205.1225 14.90691491  2791
